[{"OBJECT_NAME":"TOMORROW-S6","OBJECT_ID":"2025-052R","EPOCH":"2026-03-09T16:40:22.799712","MEAN_MOTION":15.21501626,"ECCENTRICITY":0.00068231,"INCLINATION":97.4118,"RA_OF_ASC_NODE":323.125,"ARG_OF_PERICENTER":114.9559,"MEAN_ANOMALY":245.2387,"EPHEMERIS_TYPE":0,"CLASSIFICATION_TYPE":"U","NORAD_CAT_ID":63225,"ELEMENT_SET_NO":999,"REV_AT_EPOCH":5471,"BSTAR":0.00024124683,"MEAN_MOTION_DOT":5.362e-5,"MEAN_MOTION_DDOT":0},{"OBJECT_NAME":"COSMOS 249 DEB","OBJECT_ID":"1968-091AB","EPOCH":"2026-03-09T20:26:03.278112","MEAN_MOTION":13.65672942,"ECCENTRICITY":0.07422962,"INCLINATION":62.2701,"RA_OF_ASC_NODE":70.4053,"ARG_OF_PERICENTER":111.2229,"MEAN_ANOMALY":256.9701,"EPHEMERIS_TYPE":0,"CLASSIFICATION_TYPE":"U","NORAD_CAT_ID":3609,"ELEMENT_SET_NO":999,"REV_AT_EPOCH":69132,"BSTAR":0.00039134287,"MEAN_MOTION_DOT":2.2e-5,"MEAN_MOTION_DDOT":0}]
